{
  "norad_id": 66177,
  "name": "STARLINK-35352",
  "history": [
    {
      "epoch": "2026-03-28T13:38:20.219712",
      "apogee_km": 475.92046483532886,
      "perigee_km": 474.48537545604995,
      "latitude_deg": -52.4752568971894,
      "longitude_deg": 132.25579968001693,
      "semi_major_axis_km": 6853.339920145689,
      "eccentricity": 0.0001047,
      "inclination_deg": 53.1579,
      "raan_deg": 157.5989,
      "arg_perigee_deg": 102.8768,
      "mean_anomaly_deg": 257.2349,
      "mean_motion_rev_day": 15.30204069
    },
    {
      "epoch": "2026-03-29T03:44:48.920928",
      "apogee_km": 476.28249978591157,
      "perigee_km": 474.0743615541496,
      "latitude_deg": 52.30034967643911,
      "longitude_deg": -171.31231008004397,
      "semi_major_axis_km": 6853.315430670031,
      "eccentricity": 0.0001611,
      "inclination_deg": 53.1582,
      "raan_deg": 154.8675,
      "arg_perigee_deg": 105.9712,
      "mean_anomaly_deg": 254.1466,
      "mean_motion_rev_day": 15.30212271
    }
  ]
}